{
    "type": "FeatureCollection",
    "features": [
        {
            "type": "Feature",
            "properties": {
                "ZONE_ID": "PROTECTION_ZONE",
                "CRS": "EPSG:4326"
            },
            "geometry": {
                "type": "Polygon",
                "coordinates": [
                    [
                        [
                            32.58,
                            0.32
                        ],
                        [
                            32.6,
                            0.32
                        ],
                        [
                            32.6,
                            0.34
                        ],
                        [
                            32.58,
                            0.34
                        ],
                        [
                            32.58,
                            0.32
                        ]
                    ]
                ]
            }
        }
    ]
}